{"type": "FeatureCollection", "features": [ {"type": "Feature", "properties": {"norad_id": 67090, "name": "STARLINK-36060", "group": "last-30-days", "lat": -60.351410854649735, "lon": 77.2871468484524, "alt_km": 321.32439374426303, "timestamp": "2025-12-24T03:53:28.365234+00:00", "meta": {"OBJECT_NAME": "STARLINK-36060", "OBJECT_ID": "2025-298R", "EPOCH": "2025-12-23T20:00:01.000224", "MEAN_MOTION": 15.8600266, "ECCENTRICITY": 0.0003736, "INCLINATION": 69.996, "RA_OF_ASC_NODE": 218.4369, "ARG_OF_PERICENTER": 270.8609, "MEAN_ANOMALY": 260.847, "EPHEMERIS_TYPE": 0, "CLASSIFICATION_TYPE": "U", "NORAD_CAT_ID": 67090, "ELEMENT_SET_NO": 999, "REV_AT_EPOCH": 270, "BSTAR": -0.0081046, "MEAN_MOTION_DOT": -0.01734781, "MEAN_MOTION_DDOT": 0}, "tle": {"line1": "1 67090U 25298R   25357.83334491 -.01734781  00000+0 -81046-2 0  9998", "line2": "2 67090  69.9960 218.4369 0003736 270.8609 260.8470 15.86002660  2707"}}, "geometry": {"type": "Point", "coordinates": [77.2871468484524, -60.351410854649735]}}, {"type": "Feature", "properties": {"norad_id": 67091, "name": "STARLINK-36097", "group": "last-30-days", "lat": -61.873008271879186, "lon": 80.45226792649214, "alt_km": 321.43886029517853, "timestamp": "2025-12-24T03:53:28.365245+00:00", "meta": {"OBJECT_NAME": "STARLINK-36097", "OBJECT_ID": "2025-298S", "EPOCH": "2025-12-23T20:00:01.000224", "MEAN_MOTION": 15.85990859, "ECCENTRICITY": 0.0003532, "INCLINATION": 69.9961, "RA_OF_ASC_NODE": 218.4343, "ARG_OF_PERICENTER": 268.8885, "MEAN_ANOMALY": 264.9895, "EPHEMERIS_TYPE": 0, "CLASSIFICATION_TYPE": "U", "NORAD_CAT_ID": 67091, "ELEMENT_SET_NO": 999, "REV_AT_EPOCH": 276, "BSTAR": -0.0080838, "MEAN_MOTION_DOT": -0.01729817, "MEAN_MOTION_DDOT": 0}, "tle": {"line1": "1 67091U 25298S   25357.83334491 -.01729817  00000+0 -80838-2 0  9991", "line2": "2 67091  69.9961 218.4343 0003532 268.8885 264.9895 15.85990859  2765"}}, "geometry": {"type": "Point", "coordinates": [80.45226792649214, -61.873008271879186]}}, {"type": "Feature", "properties": {"norad_id": 67092, "name": "STARLINK-35792", "group": "last-30-days", "lat": -63.11232169502276, "lon": 83.4165808462946, "alt_km": 321.38761620698824, "timestamp": "2025-12-24T03:53:28.365255+00:00", "meta": {"OBJECT_NAME": "STARLINK-35792", "OBJECT_ID": "2025-298T", "EPOCH": "2025-12-23T20:00:01.000224", "MEAN_MOTION": 15.85995534, "ECCENTRICITY": 0.0003648, "INCLINATION": 69.9961, "RA_OF_ASC_NODE": 218.4321, "ARG_OF_PERICENTER": 272.6681, "MEAN_ANOMALY": 263.0553, "EPHEMERIS_TYPE": 0, "CLASSIFICATION_TYPE": "U", "NORAD_CAT_ID": 67092, "ELEMENT_SET_NO": 999, "REV_AT_EPOCH": 270, "BSTAR": -0.0080587, "MEAN_MOTION_DOT": -0.01725671, "MEAN_MOTION_DDOT": 0}, "tle": {"line1": "1 67092U 25298T   25357.83334491 -.01725671  00000+0 -80587-2 0  9997", "line2": "2 67092  69.9961 218.4321 0003648 272.6681 263.0553 15.85995534  2707"}}, "geometry": {"type": "Point", "coordinates": [83.4165808462946, -63.11232169502276]}}, {"type": "Feature", "properties": {"norad_id": 67093, "name": "STARLINK-35784", "group": "last-30-days", "lat": -64.37077361139903, "lon": 86.89553994206402, "alt_km": 321.31862910344626, "timestamp": "2025-12-24T03:53:28.365268+00:00", "meta": {"OBJECT_NAME": "STARLINK-35784", "OBJECT_ID": "2025-298U", "EPOCH": "2025-12-23T20:00:01.000224", "MEAN_MOTION": 15.85993094, "ECCENTRICITY": 0.0003708, "INCLINATION": 69.9959, "RA_OF_ASC_NODE": 218.4296, "ARG_OF_PERICENTER": 270.9978, "MEAN_ANOMALY": 266.7188, "EPHEMERIS_TYPE": 0, "CLASSIFICATION_TYPE": "U", "NORAD_CAT_ID": 67093, "ELEMENT_SET_NO": 999, "REV_AT_EPOCH": 276, "BSTAR": -0.0080568, "MEAN_MOTION_DOT": -0.01725206, "MEAN_MOTION_DDOT": 0}, "tle": {"line1": "1 67093U 25298U   25357.83334491 -.01725206  00000+0 -80568-2 0  9991", "line2": "2 67093  69.9959 218.4296 0003708 270.9978 266.7188 15.85993094  2762"}}, "geometry": {"type": "Point", "coordinates": [86.89553994206402, -64.37077361139903]}}, {"type": "Feature", "properties": {"norad_id": 67094, "name": "STARLINK-36202", "group": "last-30-days", "lat": -65.65475313301457, "lon": 91.1094533329488, "alt_km": 321.3537910929517, "timestamp": "2025-12-24T03:53:28.365278+00:00", "meta": {"OBJECT_NAME": "STARLINK-36202", "OBJECT_ID": "2025-298V", "EPOCH": "2025-12-23T20:00:01.000224", "MEAN_MOTION": 15.85985773, "ECCENTRICITY": 0.0003735, "INCLINATION": 69.996, "RA_OF_ASC_NODE": 218.4273, "ARG_OF_PERICENTER": 272.4813, "MEAN_ANOMALY": 267.4487, "EPHEMERIS_TYPE": 0, "CLASSIFICATION_TYPE": "U", "NORAD_CAT_ID": 67094, "ELEMENT_SET_NO": 999, "REV_AT_EPOCH": 276, "BSTAR": -0.0081175, "MEAN_MOTION_DOT": -0.01735929, "MEAN_MOTION_DDOT": 0}, "tle": {"line1": "1 67094U 25298V   25357.83334491 -.01735929  00000+0 -81175-2 0  9990", "line2": "2 67094  69.9960 218.4273 0003735 272.4813 267.4487 15.85985773  2760"}}, "geometry": {"type": "Point", "coordinates": [91.1094533329488, -65.65475313301457]}}, {"type": "Feature", "properties": {"norad_id": 67095, "name": "STARLINK-36227", "group": "last-30-days", "lat": -66.74269284104281, "lon": 95.44076173791471, "alt_km": 321.454685823358, "timestamp": "2025-12-24T03:53:28.365290+00:00", "meta": {"OBJECT_NAME": "STARLINK-36227", "OBJECT_ID": "2025-298W", "EPOCH": "2025-12-23T20:00:01.000224", "MEAN_MOTION": 15.85981751, "ECCENTRICITY": 0.0003602, "INCLINATION": 69.9956, "RA_OF_ASC_NODE": 218.4245, "ARG_OF_PERICENTER": 273.8514, "MEAN_ANOMALY": 268.1455, "EPHEMERIS_TYPE": 0, "CLASSIFICATION_TYPE": "U", "NORAD_CAT_ID": 67095, "ELEMENT_SET_NO": 999, "REV_AT_EPOCH": 270, "BSTAR": -0.0081104, "MEAN_MOTION_DOT": -0.01734144, "MEAN_MOTION_DDOT": 0}, "tle": {"line1": "1 67095U 25298W   25357.83334491 -.01734144  00000+0 -81104-2 0  9991", "line2": "2 67095  69.9956 218.4245 0003602 273.8514 268.1455 15.85981751  2700"}}, "geometry": {"type": "Point", "coordinates": [95.44076173791471, -66.74269284104281]}}, {"type": "Feature", "properties": {"norad_id": 67096, "name": "STARLINK-36228", "group": "last-30-days", "lat": -67.58596993673216, "lon": 99.5198979310386, "alt_km": 321.3180489796432, "timestamp": "2025-12-24T03:53:28.365302+00:00", "meta": {"OBJECT_NAME": "STARLINK-36228", "OBJECT_ID": "2025-298X", "EPOCH": "2025-12-23T20:00:01.000224", "MEAN_MOTION": 15.85981219, "ECCENTRICITY": 0.0003762, "INCLINATION": 69.9958, "RA_OF_ASC_NODE": 218.4226, "ARG_OF_PERICENTER": 273.1394, "MEAN_ANOMALY": 270.6521, "EPHEMERIS_TYPE": 0, "CLASSIFICATION_TYPE": "U", "NORAD_CAT_ID": 67096, "ELEMENT_SET_NO": 999, "REV_AT_EPOCH": 270, "BSTAR": -0.0080814, "MEAN_MOTION_DOT": -0.01728958, "MEAN_MOTION_DDOT": 0}, "tle": {"line1": "1 67096U 25298X   25357.83334491 -.01728958  00000+0 -80814-2 0  9995", "line2": "2 67096  69.9958 218.4226 0003762 273.1394 270.6521 15.85981219  2709"}}, "geometry": {"type": "Point", "coordinates": [99.5198979310386, -67.58596993673216]}}, {"type": "Feature", "properties": {"norad_id": 67097, "name": "STARLINK-36222", "group": "last-30-days", "lat": -68.39931007908753, "lon": 104.42255684551029, "alt_km": 321.3746411524962, "timestamp": "2025-12-24T03:53:28.365314+00:00", "meta": {"OBJECT_NAME": "STARLINK-36222", "OBJECT_ID": "2025-298Y", "EPOCH": "2025-12-23T20:00:01.000224", "MEAN_MOTION": 15.85981749, "ECCENTRICITY": 0.000369, "INCLINATION": 69.9956, "RA_OF_ASC_NODE": 218.42, "ARG_OF_PERICENTER": 273.7363, "MEAN_ANOMALY": 272.0704, "EPHEMERIS_TYPE": 0, "CLASSIFICATION_TYPE": "U", "NORAD_CAT_ID": 67097, "ELEMENT_SET_NO": 999, "REV_AT_EPOCH": 270, "BSTAR": -0.0081147, "MEAN_MOTION_DOT": -0.0173506, "MEAN_MOTION_DDOT": 0}, "tle": {"line1": "1 67097U 25298Y   25357.83334491 -.01735060  00000+0 -81147-2 0  9998", "line2": "2 67097  69.9956 218.4200 0003690 273.7363 272.0704 15.85981749  2709"}}, "geometry": {"type": "Point", "coordinates": [104.42255684551029, -68.39931007908753]}}, {"type": "Feature", "properties": {"norad_id": 67098, "name": "STARLINK-36205", "group": "last-30-days", "lat": -69.11016285248498, "lon": 110.1367740866994, "alt_km": 321.3705776403749, "timestamp": "2025-12-24T03:53:28.365324+00:00", "meta": {"OBJECT_NAME": "STARLINK-36205", "OBJECT_ID": "2025-298Z", "EPOCH": "2025-12-23T20:00:01.000224", "MEAN_MOTION": 15.85971513, "ECCENTRICITY": 0.000368, "INCLINATION": 69.9957, "RA_OF_ASC_NODE": 218.4174, "ARG_OF_PERICENTER": 270.1767, "MEAN_ANOMALY": 277.8305, "EPHEMERIS_TYPE": 0, "CLASSIFICATION_TYPE": "U", "NORAD_CAT_ID": 67098, "ELEMENT_SET_NO": 999, "REV_AT_EPOCH": 276, "BSTAR": -0.0081018, "MEAN_MOTION_DOT": -0.01731902, "MEAN_MOTION_DDOT": 0}, "tle": {"line1": "1 67098U 25298Z   25357.83334491 -.01731902  00000+0 -81018-2 0  9997", "line2": "2 67098  69.9957 218.4174 0003680 270.1767 277.8305 15.85971513  2763"}}, "geometry": {"type": "Point", "coordinates": [110.1367740866994, -69.11016285248498]}}, {"type": "Feature", "properties": {"norad_id": 67099, "name": "STARLINK-36193", "group": "last-30-days", "lat": -69.82007427540124, "lon": 119.89356901842974, "alt_km": 321.7158791789943, "timestamp": "2025-12-24T03:53:28.365351+00:00", "meta": {"OBJECT_NAME": "STARLINK-36193", "OBJECT_ID": "2025-298AA", "EPOCH": "2025-12-23T20:00:01.000224", "MEAN_MOTION": 15.86094461, "ECCENTRICITY": 0.0003651, "INCLINATION": 69.9957, "RA_OF_ASC_NODE": 218.4134, "ARG_OF_PERICENTER": 269.4794, "MEAN_ANOMALY": 282.0251, "EPHEMERIS_TYPE": 0, "CLASSIFICATION_TYPE": "U", "NORAD_CAT_ID": 67099, "ELEMENT_SET_NO": 999, "REV_AT_EPOCH": 270, "BSTAR": -0.0096298, "MEAN_MOTION_DOT": -0.02066318, "MEAN_MOTION_DDOT": 0}, "tle": {"line1": "1 67099U 25298AA  25357.83334491 -.02066318  00000+0 -96298-2 0  9997", "line2": "2 67099  69.9957 218.4134 0003651 269.4794 282.0251 15.86094461  2700"}}, "geometry": {"type": "Point", "coordinates": [119.89356901842974, -69.82007427540124]}}]}